[{"OBJECT_NAME":"IRIDIUM 120","OBJECT_ID":"2017-039C","EPOCH":"2026-03-09T21:12:27.197568","MEAN_MOTION":14.34217759,"ECCENTRICITY":0.00021079,"INCLINATION":86.4016,"RA_OF_ASC_NODE":3.4651,"ARG_OF_PERICENTER":89.0553,"MEAN_ANOMALY":271.0885,"EPHEMERIS_TYPE":0,"CLASSIFICATION_TYPE":"U","NORAD_CAT_ID":42805,"ELEMENT_SET_NO":999,"REV_AT_EPOCH":45694,"BSTAR":1.4790436e-5,"MEAN_MOTION_DOT":6.1e-7,"MEAN_MOTION_DDOT":0},{"OBJECT_NAME":"SL-18 DEB","OBJECT_ID":"1993-014C","EPOCH":"2026-03-09T14:57:03.612672","MEAN_MOTION":14.44505738,"ECCENTRICITY":0.0144918,"INCLINATION":75.7472,"RA_OF_ASC_NODE":262.9452,"ARG_OF_PERICENTER":28.9726,"MEAN_ANOMALY":43.3345,"EPHEMERIS_TYPE":0,"CLASSIFICATION_TYPE":"U","NORAD_CAT_ID":22567,"ELEMENT_SET_NO":999,"REV_AT_EPOCH":71961,"BSTAR":0.00044664,"MEAN_MOTION_DOT":1.739e-5,"MEAN_MOTION_DDOT":0}]
